{
  "type": "FeatureCollection",
  "features": [
    {
      "type": "Feature",
      "properties": {
        "norad_id": 66836,
        "name": "STARLINK-35838",
        "group": "last-30-days",
        "lat": -50.683691984423554,
        "lon": 27.920529906736046,
        "alt_km": 404.06931335646186,
        "timestamp": "2025-12-18T21:31:49.699995+00:00",
        "meta_object_name": "STARLINK-35838",
        "meta_object_id": "2025-280R",
        "meta_epoch": "2025-12-18T06:00:02.999808",
        "meta_mean_motion": 15.58759907,
        "meta_eccentricity": 0.00033989,
        "meta_inclination": 70.007,
        "meta_ra_of_asc_node": 183.3078,
        "meta_arg_of_pericenter": 269.6685,
        "meta_mean_anomaly": 299.1376,
        "meta_ephemeris_type": 0,
        "meta_classification_type": "U",
        "meta_norad_cat_id": 66836,
        "meta_element_set_no": 999,
        "meta_rev_at_epoch": 378,
        "meta_bstar": -0.030162076,
        "meta_mean_motion_dot": -0.02044569,
        "meta_mean_motion_ddot": 0,
        "tle_line1": "1 66836U 25280R   25352.25003472 -.02044569  00000+0 -30162-1 0  9990",
        "tle_line2": "2 66836  70.0070 183.3078 0003398 269.6685 299.1376 15.58759907  3781"
      },
      "geometry": {
        "type": "Point",
        "coordinates": [
          27.920529906736046,
          -50.683691984423554
        ]
      }
    },
    {
      "type": "Feature",
      "properties": {
        "norad_id": 66837,
        "name": "STARLINK-35729",
        "group": "last-30-days",
        "lat": -52.280017106579685,
        "lon": 29.604256134469093,
        "alt_km": 404.19340616677437,
        "timestamp": "2025-12-18T21:31:49.700007+00:00",
        "meta_object_name": "STARLINK-35729",
        "meta_object_id": "2025-280S",
        "meta_epoch": "2025-12-18T06:00:02.999808",
        "meta_mean_motion": 15.58763717,
        "meta_eccentricity": 0.00032826,
        "meta_inclination": 70.007,
        "meta_ra_of_asc_node": 183.3053,
        "meta_arg_of_pericenter": 271.1515,
        "meta_mean_anomaly": 299.5698,
        "meta_ephemeris_type": 0,
        "meta_classification_type": "U",
        "meta_norad_cat_id": 66837,
        "meta_element_set_no": 999,
        "meta_rev_at_epoch": 378,
        "meta_bstar": -0.030257619,
        "meta_mean_motion_dot": -0.02050376,
        "meta_mean_motion_ddot": 0,
        "tle_line1": "1 66837U 25280S   25352.25003472 -.02050376  00000+0 -30258-1 0  9990",
        "tle_line2": "2 66837  70.0070 183.3053 0003282 271.1515 299.5698 15.58763717  3782"
      },
      "geometry": {
        "type": "Point",
        "coordinates": [
          29.604256134469093,
          -52.280017106579685
        ]
      }
    },
    {
      "type": "Feature",
      "properties": {
        "norad_id": 66838,
        "name": "STARLINK-35886",
        "group": "last-30-days",
        "lat": -55.396266753354666,
        "lon": 33.36799724840412,
        "alt_km": 404.1492050621264,
        "timestamp": "2025-12-18T21:31:49.700017+00:00",
        "meta_object_name": "STARLINK-35886",
        "meta_object_id": "2025-280T",
        "meta_epoch": "2025-12-18T06:00:02.999808",
        "meta_mean_motion": 15.5876318,
        "meta_eccentricity": 0.00032461,
        "meta_inclination": 70.0069,
        "meta_ra_of_asc_node": 183.3005,
        "meta_arg_of_pericenter": 267.3788,
        "meta_mean_anomaly": 307.1733,
        "meta_ephemeris_type": 0,
        "meta_classification_type": "U",
        "meta_norad_cat_id": 66838,
        "meta_element_set_no": 999,
        "meta_rev_at_epoch": 378,
        "meta_bstar": -0.030256033,
        "meta_mean_motion_dot": -0.02050211,
        "meta_mean_motion_ddot": 0,
        "tle_line1": "1 66838U 25280T   25352.25003472 -.02050211  00000+0 -30256-1 0  9997",
        "tle_line2": "2 66838  70.0069 183.3005 0003246 267.3788 307.1733 15.58763180  3787"
      },
      "geometry": {
        "type": "Point",
        "coordinates": [
          33.36799724840412,
          -55.396266753354666
        ]
      }
    },
    {
      "type": "Feature",
      "properties": {
        "norad_id": 66839,
        "name": "STARLINK-35717",
        "group": "last-30-days",
        "lat": -53.8497514059718,
        "lon": 31.41218055872489,
        "alt_km": 404.05958082685993,
        "timestamp": "2025-12-18T21:31:49.700027+00:00",
        "meta_object_name": "STARLINK-35717",
        "meta_object_id": "2025-280U",
        "meta_epoch": "2025-12-18T06:00:02.999808",
        "meta_mean_motion": 15.58761213,
        "meta_eccentricity": 0.00034734,
        "meta_inclination": 70.0069,
        "meta_ra_of_asc_node": 183.3028,
        "meta_arg_of_pericenter": 270.181,
        "meta_mean_anomaly": 302.4574,
        "meta_ephemeris_type": 0,
        "meta_classification_type": "U",
        "meta_norad_cat_id": 66839,
        "meta_element_set_no": 999,
        "meta_rev_at_epoch": 378,
        "meta_bstar": -0.03024542,
        "meta_mean_motion_dot": -0.02049662,
        "meta_mean_motion_ddot": 0,
        "tle_line1": "1 66839U 25280U   25352.25003472 -.02049662  00000+0 -30245-1 0  9994",
        "tle_line2": "2 66839  70.0069 183.3028 0003473 270.1810 302.4574 15.58761213  3789"
      },
      "geometry": {
        "type": "Point",
        "coordinates": [
          31.41218055872489,
          -53.8497514059718
        ]
      }
    },
    {
      "type": "Feature",
      "properties": {
        "norad_id": 66840,
        "name": "STARLINK-35837",
        "group": "last-30-days",
        "lat": -56.9032061345193,
        "lon": 35.47357118396426,
        "alt_km": 404.1384953504112,
        "timestamp": "2025-12-18T21:31:49.700037+00:00",
        "meta_object_name": "STARLINK-35837",
        "meta_object_id": "2025-280V",
        "meta_epoch": "2025-12-18T06:00:02.999808",
        "meta_mean_motion": 15.58761726,
        "meta_eccentricity": 0.0003284,
        "meta_inclination": 70.0069,
        "meta_ra_of_asc_node": 183.2988,
        "meta_arg_of_pericenter": 267.4801,
        "meta_mean_anomaly": 308.9901,
        "meta_ephemeris_type": 0,
        "meta_classification_type": "U",
        "meta_norad_cat_id": 66840,
        "meta_element_set_no": 999,
        "meta_rev_at_epoch": 378,
        "meta_bstar": -0.030274333,
        "meta_mean_motion_dot": -0.0205123,
        "meta_mean_motion_ddot": 0,
        "tle_line1": "1 66840U 25280V   25352.25003472 -.02051230  00000+0 -30274-1 0  9992",
        "tle_line2": "2 66840  70.0069 183.2988 0003284 267.4801 308.9901 15.58761726  3788"
      },
      "geometry": {
        "type": "Point",
        "coordinates": [
          35.47357118396426,
          -56.9032061345193
        ]
      }
    },
    {
      "type": "Feature",
      "properties": {
        "norad_id": 66841,
        "name": "STARLINK-35715",
        "group": "last-30-days",
        "lat": -58.406042666983275,
        "lon": 37.82541571917039,
        "alt_km": 404.04478981617103,
        "timestamp": "2025-12-18T21:31:49.700047+00:00",
        "meta_object_name": "STARLINK-35715",
        "meta_object_id": "2025-280W",
        "meta_epoch": "2025-12-18T06:00:02.999808",
        "meta_mean_motion": 15.58733954,
        "meta_eccentricity": 0.00033178,
        "meta_inclination": 69.999,
        "meta_ra_of_asc_node": 183.2948,
        "meta_arg_of_pericenter": 273.6324,
        "meta_mean_anomaly": 304.7626,
        "meta_ephemeris_type": 0,
        "meta_classification_type": "U",
        "meta_norad_cat_id": 66841,
        "meta_element_set_no": 999,
        "meta_rev_at_epoch": 378,
        "meta_bstar": -0.029319265,
        "meta_mean_motion_dot": -0.01992669,
        "meta_mean_motion_ddot": 0,
        "tle_line1": "1 66841U 25280W   25352.25003472 -.01992669  00000+0 -29319-1 0  9990",
        "tle_line2": "2 66841  69.9990 183.2948 0003317 273.6324 304.7626 15.58733954  3781"
      },
      "geometry": {
        "type": "Point",
        "coordinates": [
          37.82541571917039,
          -58.406042666983275
        ]
      }
    },
    {
      "type": "Feature",
      "properties": {
        "norad_id": 66842,
        "name": "STARLINK-35769",
        "group": "last-30-days",
        "lat": -59.83232883938011,
        "lon": 40.313292967677384,
        "alt_km": 404.0976019256768,
        "timestamp": "2025-12-18T21:31:49.700060+00:00",
        "meta_object_name": "STARLINK-35769",
        "meta_object_id": "2025-280X",
        "meta_epoch": "2025-12-18T06:00:02.999808",
        "meta_mean_motion": 15.58736795,
        "meta_eccentricity": 0.00031738,
        "meta_inclination": 69.9987,
        "meta_ra_of_asc_node": 183.2927,
        "meta_arg_of_pericenter": 271.1854,
        "meta_mean_anomaly": 309.125,
        "meta_ephemeris_type": 0,
        "meta_classification_type": "U",
        "meta_norad_cat_id": 66842,
        "meta_element_set_no": 999,
        "meta_rev_at_epoch": 378,
        "meta_bstar": -0.02937698,
        "meta_mean_motion_dot": -0.01996173,
        "meta_mean_motion_ddot": 0,
        "tle_line1": "1 66842U 25280X   25352.25003472 -.01996173  00000+0 -29377-1 0  9999",
        "tle_line2": "2 66842  69.9987 183.2927 0003173 271.1854 309.1250 15.58736795  3784"
      },
      "geometry": {
        "type": "Point",
        "coordinates": [
          40.313292967677384,
          -59.83232883938011
        ]
      }
    }
  ]
}